54146,ONEWEB-0531,2022,109.03,148.0,+,87.92,Active,1,LEO,India,UK,Commercial,Communications,PSLV,1 54146U 22138AK  24258.86035073 -.00000066  00000+0 -19390-3 0  9997,2 54146  87.9232  41.7987 0002708  83.1352 277.0090 13.20774872 95659,13.20774872,0.0002708,LEO
54147,ONEWEB-0535,2022,109.11,148.0,+,87.91,Active,1,LEO,India,UK,Commercial,Communications,PSLV,1 54147U 22138AL  24258.88231246  .00000011  00000+0 -40727-5 0  9999,2 54147  87.9088  72.3170 0001939  84.8732 275.2622 13.19725378 92381,13.19725378,0.0001939,LEO
54148,ONEWEB-0536,2022,109.03,148.0,+,87.92,Active,1,LEO,India,UK,Commercial,Communications,PSLV,1 54148U 22138AM  24258.84773524 -.00000002  00000+0 -36029-4 0  9996,2 54148  87.9232  41.8494 0002307  71.5581 288.5803 13.20769074 94774,13.20769074,0.0002307,LEO
54642,ONEWEB-0527,2022,108.94,148.0,+,87.94,Active,1,LEO,USA,UK,Commercial,Communications,Falcon,1 54642U 22166A   24259.08254068  .00000094  00000+0  19641-3 0  9999,2 54642  87.9357  11.4467 0001863 100.6684 259.4660 13.21826566 87421,13.21826566,0.0001863,LEO
54643,ONEWEB-0528,2022,108.94,148.0,+,87.94,Active,1,LEO,USA,UK,Commercial,Communications,Falcon,1 54643U 22166B   24259.01317913  .00000154  00000+0  34211-3 0  9999,2 54643  87.9361  11.4506 0001853 104.7329 255.4010 13.21825493 87424,13.21825493,0.0001853,LEO
54644,ONEWEB-0539,2022,108.94,148.0,+,87.94,Active,1,LEO,USA,UK,Commercial,Communications,Falcon,1 54644U 22166C   24259.04944463  .00000181  00000+0  40603-3 0  9991,2 54644  87.9364  11.4465 0001636 100.0527 260.0791 13.21825184 87425,13.21825184,0.0001636,LEO
54645,ONEWEB-0540,2022,108.94,148.0,+,87.94,Active,1,LEO,USA,UK,Commercial,Communications,Falcon,1 54645U 22166D   24258.81682229  .00000043  00000+0  72200-4 0  9991,2 54645  87.9357  11.5057 0001547 100.6829 259.4479 13.21828685 86937,13.21828685,0.0001547,LEO
54646,ONEWEB-0542,2022,108.94,148.0,+,87.94,Active,1,LEO,USA,UK,Commercial,Communications,Falcon,1 54646U 22166E   24258.83182260  .00000033  00000+0  48799-4 0  9999,2 54646  87.9363  11.4888 0001475  87.3096 272.8206 13.21826074 86941,13.21826074,0.0001475,LEO
